{
  "type": "FeatureCollection",
  "features": [
    {
      "type": "Feature",
      "properties": {
        "norad_id": 2807,
        "name": "OPS 7218 (TRANSIT 16)",
        "group": "nnss",
        "lat": -5.068159451291395,
        "lon": -5.838056345912725,
        "alt_km": 1084.2210044372414,
        "timestamp": "2025-12-07T11:27:50.270572+00:00",
        "meta_object_name": "OPS 7218 (TRANSIT 16)",
        "meta_object_id": "1967-048A",
        "meta_epoch": "2025-12-06T23:20:38.629248",
        "meta_mean_motion": 13.50720658,
        "meta_eccentricity": 0.0021696,
        "meta_inclination": 89.6732,
        "meta_ra_of_asc_node": 354.2076,
        "meta_arg_of_pericenter": 129.5917,
        "meta_mean_anomaly": 291.5086,
        "meta_ephemeris_type": 0,
        "meta_classification_type": "U",
        "meta_norad_cat_id": 2807,
        "meta_element_set_no": 999,
        "meta_rev_at_epoch": 88198,
        "meta_bstar": 0.00024350574,
        "meta_mean_motion_dot": 1.67e-06,
        "meta_mean_motion_ddot": 0,
        "tle_line1": "1 02807U 67048A   25340.97266932  .00000167  00000+0  24351-3 0  9991",
        "tle_line2": "2 02807  89.6732 354.2076 0021696 129.5917 291.5086 13.50720658881981"
      },
      "geometry": {
        "type": "Point",
        "coordinates": [
          -5.838056345912725,
          -5.068159451291395
        ]
      }
    },
    {
      "type": "Feature",
      "properties": {
        "norad_id": 2965,
        "name": "OPS 4947 (TRANSIT 17)",
        "group": "nnss",
        "lat": 8.39440281995216,
        "lon": 24.947774840830252,
        "alt_km": 1077.3752227217092,
        "timestamp": "2025-12-07T11:27:50.270594+00:00",
        "meta_object_name": "OPS 4947 (TRANSIT 17)",
        "meta_object_id": "1967-092A",
        "meta_epoch": "2025-12-06T22:05:41.150688",
        "meta_mean_motion": 13.5345142,
        "meta_eccentricity": 0.0045877,
        "meta_inclination": 89.2501,
        "meta_ra_of_asc_node": 24.8794,
        "meta_arg_of_pericenter": 251.9613,
        "meta_mean_anomaly": 283.5157,
        "meta_ephemeris_type": 0,
        "meta_classification_type": "U",
        "meta_norad_cat_id": 2965,
        "meta_element_set_no": 999,
        "meta_rev_at_epoch": 87018,
        "meta_bstar": 0.0002769756,
        "meta_mean_motion_dot": 1.98e-06,
        "meta_mean_motion_ddot": 0,
        "tle_line1": "1 02965U 67092A   25340.92061517  .00000198  00000+0  27698-3 0  9993",
        "tle_line2": "2 02965  89.2501  24.8794 0045877 251.9613 283.5157 13.53451420870184"
      },
      "geometry": {
        "type": "Point",
        "coordinates": [
          24.947774840830252,
          8.39440281995216
        ]
      }
    },
    {
      "type": "Feature",
      "properties": {
        "norad_id": 3133,
        "name": "OPS 7034 (TRANSIT 18)",
        "group": "nnss",
        "lat": -13.195569227138767,
        "lon": 93.61770525378913,
        "alt_km": 1017.0475449297473,
        "timestamp": "2025-12-07T11:27:50.270618+00:00",
        "meta_object_name": "OPS 7034 (TRANSIT 18)",
        "meta_object_id": "1968-012A",
        "meta_epoch": "2025-12-06T20:35:30.297120",
        "meta_mean_motion": 13.5156378,
        "meta_eccentricity": 0.00733016,
        "meta_inclination": 90.0273,
        "meta_ra_of_asc_node": 273.6224,
        "meta_arg_of_pericenter": 186.2499,
        "meta_mean_anomaly": 233.3892,
        "meta_ephemeris_type": 0,
        "meta_classification_type": "U",
        "meta_norad_cat_id": 3133,
        "meta_element_set_no": 999,
        "meta_rev_at_epoch": 56839,
        "meta_bstar": 0.00028599477,
        "meta_mean_motion_dot": 1.99e-06,
        "meta_mean_motion_ddot": 0,
        "tle_line1": "1 03133U 68012A   25340.85798955  .00000199  00000+0  28599-3 0  9991",
        "tle_line2": "2 03133  90.0273 273.6224 0073301 186.2499 233.3892 13.51563780568392"
      },
      "geometry": {
        "type": "Point",
        "coordinates": [
          93.61770525378913,
          -13.195569227138767
        ]
      }
    },
    {
      "type": "Feature",
      "properties": {
        "norad_id": 4507,
        "name": "NNSS 19 (TRANSIT 19)",
        "group": "nnss",
        "lat": 11.971663150550178,
        "lon": 54.531256200229706,
        "alt_km": 1166.5391142783874,
        "timestamp": "2025-12-07T11:27:50.270630+00:00",
        "meta_object_name": "NNSS 19 (TRANSIT 19)",
        "meta_object_id": "1970-067A",
        "meta_epoch": "2025-12-06T16:51:03.998304",
        "meta_mean_motion": 13.51312853,
        "meta_eccentricity": 0.01709451,
        "meta_inclination": 90.0057,
        "meta_ra_of_asc_node": 234.5296,
        "meta_arg_of_pericenter": 311.0073,
        "meta_mean_anomaly": 47.6401,
        "meta_ephemeris_type": 0,
        "meta_classification_type": "U",
        "meta_norad_cat_id": 4507,
        "meta_element_set_no": 999,
        "meta_rev_at_epoch": 72140,
        "meta_bstar": 0.00035878908,
        "meta_mean_motion_dot": 2.63e-06,
        "meta_mean_motion_ddot": 0,
        "tle_line1": "1 04507U 70067A   25340.70212961  .00000263  00000+0  35879-3 0  9993",
        "tle_line2": "2 04507  90.0057 234.5296 0170945 311.0073  47.6401 13.51312853721409"
      },
      "geometry": {
        "type": "Point",
        "coordinates": [
          54.531256200229706,
          11.971663150550178
        ]
      }
    },
    {
      "type": "Feature",
      "properties": {
        "norad_id": 6909,
        "name": "NNSS 20 (TRANSIT 20)",
        "group": "nnss",
        "lat": -42.7485136124429,
        "lon": 75.26612452008965,
        "alt_km": 1072.3632362104618,
        "timestamp": "2025-12-07T11:27:50.270641+00:00",
        "meta_object_name": "NNSS 20 (TRANSIT 20)",
        "meta_object_id": "1973-081A",
        "meta_epoch": "2025-12-06T18:38:14.997408",
        "meta_mean_motion": 13.71430232,
        "meta_eccentricity": 0.0156585,
        "meta_inclination": 89.856,
        "meta_ra_of_asc_node": 255.1435,
        "meta_arg_of_pericenter": 95.9669,
        "meta_mean_anomaly": 265.9364,
        "meta_ephemeris_type": 0,
        "meta_classification_type": "U",
        "meta_norad_cat_id": 6909,
        "meta_element_set_no": 999,
        "meta_rev_at_epoch": 80279,
        "meta_bstar": 0.00036985462,
        "meta_mean_motion_dot": 3.75e-06,
        "meta_mean_motion_ddot": 0,
        "tle_line1": "1 06909U 73081A   25340.77656247  .00000375  00000+0  36985-3 0  9999",
        "tle_line2": "2 06909  89.8560 255.1435 0156585  95.9669 265.9364 13.71430232802798"
      },
      "geometry": {
        "type": "Point",
        "coordinates": [
          75.26612452008965,
          -42.7485136124429
        ]
      }
    },
    {
      "type": "Feature",
      "properties": {
        "norad_id": 10457,
        "name": "TRANSAT",
        "group": "nnss",
        "lat": -39.16041487431522,
        "lon": -100.93003468272498,
        "alt_km": 1064.6761276979241,
        "timestamp": "2025-12-07T11:27:50.270652+00:00",
        "meta_object_name": "TRANSAT",
        "meta_object_id": "1977-106A",
        "meta_epoch": "2025-12-06T20:43:57.120384",
        "meta_mean_motion": 13.48942269,
        "meta_eccentricity": 0.0024853,
        "meta_inclination": 89.6482,
        "meta_ra_of_asc_node": 78.805,
        "meta_arg_of_pericenter": 206.7765,
        "meta_mean_anomaly": 273.2139,
        "meta_ephemeris_type": 0,
        "meta_classification_type": "U",
        "meta_norad_cat_id": 10457,
        "meta_element_set_no": 999,
        "meta_rev_at_epoch": 36664,
        "meta_bstar": 0.00022626173,
        "meta_mean_motion_dot": 1.52e-06,
        "meta_mean_motion_ddot": 0,
        "tle_line1": "1 10457U 77106A   25340.86385556  .00000152  00000+0  22626-3 0  9996",
        "tle_line2": "2 10457  89.6482  78.8050 0024853 206.7765 273.2139 13.48942269366649"
      },
      "geometry": {
        "type": "Point",
        "coordinates": [
          -100.93003468272498,
          -39.16041487431522
        ]
      }
    },
    {
      "type": "Feature",
      "properties": {
        "norad_id": 12458,
        "name": "NOVA 1",
        "group": "nnss",
        "lat": -66.23822847889927,
        "lon": -88.20501006118073,
        "alt_km": 1187.0680732921364,
        "timestamp": "2025-12-07T11:27:50.270663+00:00",
        "meta_object_name": "NOVA 1",
        "meta_object_id": "1981-044A",
        "meta_epoch": "2025-12-06T20:18:32.908608",
        "meta_mean_motion": 13.23277662,
        "meta_eccentricity": 0.00156939,
        "meta_inclination": 89.8524,
        "meta_ra_of_asc_node": 91.4685,
        "meta_arg_of_pericenter": 118.4936,
        "meta_mean_anomaly": 1.1923,
        "meta_ephemeris_type": 0,
        "meta_classification_type": "U",
        "meta_norad_cat_id": 12458,
        "meta_element_set_no": 999,
        "meta_rev_at_epoch": 15108,
        "meta_bstar": 0.00024113294,
        "meta_mean_motion_dot": 1.11e-06,
        "meta_mean_motion_ddot": 0,
        "tle_line1": "1 12458U 81044A   25340.84621422  .00000111  00000+0  24113-3 0  9996",
        "tle_line2": "2 12458  89.8524  91.4685 0015693 118.4936   1.1923 13.23277662151087"
      },
      "geometry": {
        "type": "Point",
        "coordinates": [
          -88.20501006118073,
          -66.23822847889927
        ]
      }
    }
  ]
}